[{"OBJECT_NAME":"STARLINK-35411","OBJECT_ID":"2025-268D","EPOCH":"2026-03-09T04:41:57.674688","MEAN_MOTION":15.27576721,"ECCENTRICITY":0.00011588,"INCLINATION":42.9996,"RA_OF_ASC_NODE":349.8996,"ARG_OF_PERICENTER":286.5987,"MEAN_ANOMALY":73.4737,"EPHEMERIS_TYPE":0,"CLASSIFICATION_TYPE":"U","NORAD_CAT_ID":66560,"ELEMENT_SET_NO":999,"REV_AT_EPOCH":1788,"BSTAR":0.001097542,"MEAN_MOTION_DOT":0.0003006,"MEAN_MOTION_DDOT":0},{"OBJECT_NAME":"COSMOS 1758","OBJECT_ID":"1986-046A","EPOCH":"2026-03-09T22:23:33.220896","MEAN_MOTION":15.25706639,"ECCENTRICITY":0.00131526,"INCLINATION":82.4607,"RA_OF_ASC_NODE":143.3203,"ARG_OF_PERICENTER":337.3781,"MEAN_ANOMALY":22.6875,"EPHEMERIS_TYPE":0,"CLASSIFICATION_TYPE":"U","NORAD_CAT_ID":16791,"ELEMENT_SET_NO":999,"REV_AT_EPOCH":16610,"BSTAR":0.00027304427,"MEAN_MOTION_DOT":7.006e-5,"MEAN_MOTION_DDOT":0}]
